{
  "incident_id": "INC001",
  "trajectory": {
    "type": "Feature",
    "geometry": {
      "type": "LineString",
      "coordinates": [
        [
          74.80999755859375,
          12.510000228881836
        ],
        [
          74.80972290039062,
          12.510710716247559
        ],
        [
          74.80938720703125,
          12.511404037475586
        ],
        [
          74.80900573730469,
          12.51208209991455
        ],
        [
          74.8085708618164,
          12.51274585723877
        ],
        [
          74.8080825805664,
          12.513394355773926
        ],
        [
          74.80754852294922,
          12.514028549194336
        ],
        [
          74.80695343017578,
          12.514650344848633
        ],
        [
          74.8063735961914,
          12.51526927947998
        ],
        [
          74.80580139160156,
          12.515887260437012
        ],
        [
          74.80523681640625,
          12.51650333404541
        ],
        [
          74.80467987060547,
          12.517117500305176
        ],
        [
          74.80413818359375,
          12.517729759216309
        ],
        [
          74.80360412597656,
          12.518340110778809
        ],
        [
          74.80308532714844,
          12.5189208984375
        ],
        [
          74.80256652832031,
          12.5194730758667
        ],
        [
          74.80206298828125,
          12.519996643066406
        ],
        [
          74.80156707763672,
          12.520491600036621
        ],
        [
          74.80107879638672,
          12.520959854125977
        ],
        [
          74.80059814453125,
          12.52139949798584
        ],
        [
          74.8001708984375,
          12.521814346313477
        ],
        [
          74.7998046875,
          12.52220344543457
        ],
        [
          74.79949951171875,
          12.522566795349121
        ],
        [
          74.79924774169922,
          12.522902488708496
        ],
        [
          74.79905700683594,
          12.523212432861328
        ],
        [
          74.79891967773438,
          12.523493766784668
        ],
        [
          74.79883575439453,
          12.523752212524414
        ],
        [
          74.7988052368164,
          12.523985862731934
        ],
        [
          74.79882049560547,
          12.524194717407227
        ],
        [
          74.79889678955078,
          12.524378776550293
        ],
        [
          74.79902648925781,
          12.524538040161133
        ],
        [
          74.79920959472656,
          12.524672508239746
        ],
        [
          74.79940795898438,
          12.524811744689941
        ],
        [
          74.79962921142578,
          12.524956703186035
        ],
        [
          74.79987335205078,
          12.525108337402344
        ],
        [
          74.80014038085938,
          12.525263786315918
        ],
        [
          74.80043029785156,
          12.52542495727539
        ],
        [
          74.80073547363281,
          12.525591850280762
        ],
        [
          74.8010025024414,
          12.525766372680664
        ],
        [
          74.80122375488281,
          12.525949478149414
        ],
        [
          74.80139923095703,
          12.526142120361328
        ],
        [
          74.80152893066406,
          12.526344299316406
        ],
        [
          74.80162048339844,
          12.526556968688965
        ],
        [
          74.80166625976562,
          12.526779174804688
        ],
        [
          74.80169677734375,
          12.526968955993652
        ],
        [
          74.80171203613281,
          12.527127265930176
        ],
        [
          74.80171966552734,
          12.527253150939941
        ],
        [
          74.80170440673828,
          12.527348518371582
        ],
        [
          74.80167388916016,
          12.527411460876465
        ],
        [
          74.80162811279297,
          12.527444839477539
        ],
        [
          74.80158233642578,
          12.5274658203125
        ],
        [
          74.80154418945312,
          12.527475357055664
        ],
        [
          74.801513671875,
          12.527473449707031
        ],
        [
          74.80148315429688,
          12.527459144592285
        ],
        [
          74.80145263671875,
          12.527432441711426
        ],
        [
          74.80142974853516,
          12.527395248413086
        ],
        [
          74.8013916015625,
          12.527350425720215
        ],
        [
          74.80134582519531,
          12.527299880981445
        ],
        [
          74.80127716064453,
          12.527242660522461
        ],
        [
          74.80120086669922,
          12.527178764343262
        ],
        [
          74.80110168457031,
          12.527109146118164
        ],
        [
          74.80099487304688,
          12.527033805847168
        ],
        [
          74.80085754394531,
          12.526947975158691
        ],
        [
          74.80070495605469,
          12.526851654052734
        ],
        [
          74.80052185058594,
          12.526744842529297
        ],
        [
          74.80032348632812,
          12.526627540588379
        ],
        [
          74.80009460449219,
          12.526501655578613
        ],
        [
          74.79984283447266,
          12.526366233825684
        ],
        [
          74.7995834350586,
          12.526226043701172
        ],
        [
          74.79932403564453,
          12.526081085205078
        ],
        [
          74.79905700683594,
          12.525931358337402
        ],
        [
          74.79878234863281,
          12.525777816772461
        ],
        [
          74.79850006103516,
          12.525620460510254
        ],
        [
          74.7982177734375,
          12.525457382202148
        ],
        [
          74.79800415039062,
          12.525304794311523
        ],
        [
          74.79785919189453,
          12.525160789489746
        ],
        [
          74.79777526855469,
          12.525025367736816
        ],
        [
          74.79776000976562,
          12.524897575378418
        ],
        [
          74.79781341552734,
          12.524776458740234
        ],
        [
          74.79794311523438,
          12.524662017822266
        ],
        [
          74.79804229736328,
          12.524535179138184
        ],
        [
          74.79812622070312,
          12.524395942687988
        ],
        [
          74.7981948852539,
          12.524243354797363
        ],
        [
          74.7982406616211,
          12.524079322814941
        ],
        [
          74.79826354980469,
          12.523903846740723
        ],
        [
          74.79826354980469,
          12.52371597290039
        ],
        [
          74.79827117919922,
          12.523502349853516
        ],
        [
          74.79827880859375,
          12.523262977600098
        ],
        [
          74.79828643798828,
          12.52299690246582
        ],
        [
          74.79830169677734,
          12.522705078125
        ],
        [
          74.79830932617188,
          12.522387504577637
        ],
        [
          74.79832458496094,
          12.522043228149414
        ],
        [
          74.79833984375,
          12.521688461303711
        ],
        [
          74.7983627319336,
          12.521324157714844
        ],
        [
          74.79838562011719,
          12.52094841003418
        ],
        [
          74.79840850830078,
          12.520561218261719
        ],
        [
          74.79843139648438,
          12.520164489746094
        ],
        [
          74.7984619140625,
          12.519756317138672
        ],
        [
          74.7984848022461,
          12.519349098205566
        ],
        [
          74.7984848022461,
          12.518941879272461
        ],
        [
          74.79847717285156,
          12.518535614013672
        ],
        [
          74.7984619140625,
          12.518129348754883
        ],
        [
          74.79842376708984,
          12.517723083496094
        ],
        [
          74.79837799072266,
          12.517318725585938
        ],
        [
          74.7983169555664,
          12.516923904418945
        ],
        [
          74.79822540283203,
          12.516538619995117
        ],
        [
          74.79812622070312,
          12.51616382598877
        ],
        [
          74.7979965209961,
          12.515799522399902
        ],
        [
          74.79785919189453,
          12.5154447555542
        ],
        [
          74.79769134521484,
          12.515101432800293
        ],
        [
          74.79752349853516,
          12.514766693115234
        ],
        [
          74.7973403930664,
          12.51444149017334
        ],
        [
          74.79714965820312,
          12.514124870300293
        ],
        [
          74.79695892333984,
          12.513816833496094
        ],
        [
          74.7967529296875,
          12.513517379760742
        ],
        [
          74.79654693603516,
          12.513226509094238
        ],
        [
          74.79633331298828,
          12.512981414794922
        ],
        [
          74.79612731933594,
          12.512781143188477
        ],
        [
          74.7959213256836,
          12.512626647949219
        ],
        [
          74.79572296142578,
          12.512517929077148
        ],
        [
          74.79551696777344,
          12.512454986572266
        ],
        [
          74.79532623291016,
          12.51243782043457
        ],
        [
          74.79511260986328,
          12.51245403289795
        ],
        [
          74.79489135742188,
          12.512504577636719
        ],
        [
          74.79466247558594,
          12.512588500976562
        ],
        [
          74.7944107055664,
          12.51270580291748
        ],
        [
          74.79415893554688,
          12.512857437133789
        ],
        [
          74.79389190673828,
          12.513043403625488
        ],
        [
          74.79359436035156,
          12.513221740722656
        ],
        [
          74.79326629638672,
          12.513394355773926
        ],
        [
          74.79290771484375,
          12.513559341430664
        ],
        [
          74.79252624511719,
          12.51371955871582
        ],
        [
          74.79210662841797,
          12.513874053955078
        ],
        [
          74.79166412353516,
          12.514022827148438
        ],
        [
          74.79119110107422,
          12.514150619506836
        ],
        [
          74.79069519042969,
          12.514256477355957
        ],
        [
          74.79017639160156,
          12.5143404006958
        ],
        [
          74.78963470458984,
          12.514402389526367
        ],
        [
          74.7890625,
          12.514443397521973
        ],
        [
          74.7884750366211,
          12.5144624710083
        ],
        [
          74.78793334960938,
          12.514456748962402
        ],
        [
          74.7874526977539,
          12.514426231384277
        ],
        [
          74.78703308105469,
          12.514369010925293
        ],
        [
          74.78665924072266,
          12.514286041259766
        ],
        [
          74.7863540649414,
          12.514175415039062
        ]
      ]
    },
    "properties": {
      "incident_id": "INC001",
      "detection_time": "2026-08-30T12:00:00Z"
    }
  },
  "source_corridor": {
    "type": "Feature",
    "geometry": {
      "type": "Polygon",
      "coordinates": [
        [
          [
            74.7950707061538,
            12.467243986164176
          ],
          [
            74.79178264092431,
            12.46735704771352
          ],
          [
            74.7915690547392,
            12.467373258001345
          ],
          [
            74.78811059895797,
            12.467765531201627
          ],
          [
            74.78469221059446,
            12.468413605511575
          ],
          [
            74.78447099384304,
            12.468464142430369
          ],
          [
            74.78190009327221,
            12.469225696628447
          ],
          [
            74.7800511504276,
            12.469386569351503
          ],
          [
            74.77561404247581,
            12.470209202354472
          ],
          [
            74.77128031641374,
            12.471455184561695
          ],
          [
            74.76709168922629,
            12.473112521985076
          ],
          [
            74.76308848317423,
            12.475165260769455
          ],
          [
            74.75930923810087,
            12.477593640563425
          ],
          [
            74.7557903407796,
            12.48037428449395
          ],
          [
            74.75256567485243,
            12.483480423927507
          ],
          [
            74.74966629471668,
            12.486882155867155
          ],
          [
            74.74712012649249,
            12.490546730521585
          ],
          [
            74.74495169894917,
            12.494438866292487
          ],
          [
            74.7431819069863,
            12.49852108916226
          ],
          [
            74.7418278099582,
            12.502754093228651
          ],
          [
            74.74090246680056,
            12.507097118928037
          ],
          [
            74.7404148095693,
            12.511508345317107
          ],
          [
            74.7403695566355,
            12.515945292644957
          ],
          [
            74.74076716640259,
            12.52036523134617
          ],
          [
            74.74160383202371,
            12.5247255935205
          ],
          [
            74.74287151720317,
            12.528984382937924
          ],
          [
            74.74455803277084,
            12.533100579618749
          ],
          [
            74.7466471533233,
            12.537034535087576
          ],
          [
            74.74911877283807,
            12.540748354486883
          ],
          [
            74.75194909778689,
            12.544206261859639
          ],
          [
            74.75511087590912,
            12.547374945070363
          ],
          [
            74.75857365845661,
            12.550223877028161
          ],
          [
            74.76059231148038,
            12.551577654078978
          ],
          [
            74.7615941480263,
            12.55300088293322
          ],
          [
            74.76513308313713,
            12.556952791343958
          ],
          [
            74.76527804062471,
            12.557096813481582
          ],
          [
            74.76800903409509,
            12.559598507642503
          ],
          [
            74.77093752911574,
            12.561874468421832
          ],
          [
            74.7711511656422,
            12.56202707766212
          ],
          [
            74.77488688193986,
            12.564432364145732
          ],
          [
            74.77516919649219,
            12.564595466959444
          ],
          [
            74.77578566461153,
            12.564945344978108
          ],
          [
            74.77588682365091,
            12.565001737280944
          ],
          [
            74.77829209796295,
            12.566514696487761
          ],
          [
            74.78166215601611,
            12.568266382475914
          ],
          [
            74.78169267723318,
            12.56828068985922
          ],
          [
            74.78574038203594,
            12.56995022161743
          ],
          [
            74.7899316386322,
            12.57123331065071
          ],
          [
            74.79422830473773,
            12.572118279479815
          ],
          [
            74.79859127721974,
            12.572597073733826
          ],
          [
            74.79862180008263,
            12.572598981488467
          ],
          [
            74.80341725770688,
            12.572652765117892
          ],
          [
            74.80819237439593,
            12.572216060068927
          ],
          [
            74.81289528910476,
            12.571293608839463
          ],
          [
            74.81293344216147,
            12.571284070602088
          ],
          [
            74.81705570613539,
            12.570048963618136
          ],
          [
            74.8210422565852,
            12.568440491941372
          ],
          [
            74.82108803871486,
            12.568419507932655
          ],
          [
            74.82519412004623,
            12.566283245417097
          ],
          [
            74.82905995743084,
            12.563751170537797
          ],
          [
            74.82910573681367,
            12.563717787390004
          ],
          [
            74.83257497522786,
            12.56092016411048
          ],
          [
            74.83575025272847,
            12.557803870891929
          ],
          [
            74.83860137440374,
            12.554398552218933
          ],
          [
            74.84110123216551,
            12.550736600847644
          ],
          [
            74.84322606236958,
            12.546852849369628
          ],
          [
            74.84325657228048,
            12.546789902131483
          ],
          [
            74.84496509615197,
            12.542778478816317
          ],
          [
            74.84626760299724,
            12.538642859211333
          ],
          [
            74.8472699320893,
            12.537216692609107
          ],
          [
            74.8477047512997,
            12.53655287315716
          ],
          [
            74.8492851107875,
            12.533952759700082
          ],
          [
            74.84966650897344,
            12.53327464029144
          ],
          [
            74.85094689172735,
            12.530824689262612
          ],
          [
            74.85128250059978,
            12.530131316070271
          ],
          [
            74.85274606069923,
            12.526761955721902
          ],
          [
            74.85302061933596,
            12.52605142400011
          ],
          [
            74.85441444344507,
            12.521830824139014
          ],
          [
            74.85538044924525,
            12.517496317168003
          ],
          [
            74.85590935403346,
            12.51308965154331
          ],
          [
            74.85599608610912,
            12.508653268640753
          ],
          [
            74.8556398327722,
            12.504229893918977
          ],
          [
            74.85484404728207,
            12.499862125428258
          ],
          [
            74.85361641474327,
            12.495592023628136
          ],
          [
            74.85196877727978,
            12.49146070646153
          ],
          [
            74.84991701924928,
            12.48750795357941
          ],
          [
            74.84748091363107,
            12.483771823519069
          ],
          [
            74.84468393109097,
            12.480288287512009
          ],
          [
            74.84155301358109,
            12.477090883435215
          ],
          [
            74.83811831466856,
            12.474210393224125
          ],
          [
            74.83441290910136,
            12.471674546838736
          ],
          [
            74.83047247440926,
            12.46950775561818
          ],
          [
            74.82633494760145,
            12.467730877576198
          ],
          [
            74.82204016025523,
            12.466361016883285
          ],
          [
            74.81762945549336,
            12.46541135945316
          ],
          [
            74.81314529051672,
            12.464891046205446
          ],
          [
            74.8086308284938,
            12.46480508521577
          ],
          [
            74.80412952370804,
            12.46515430359245
          ],
          [
            74.79968470392659,
            12.46593533953935
          ],
          [
            74.79533915398021,
            12.467140674680131
          ],
          [
            74.7950707061538,
            12.467243986164176
          ]
        ]
      ]
    },
    "properties": {
      "buffer_km": 5
    }
  }
}